QIANFAN-60              
1 62790U 25016F   26009.62802884  .00000168  00000+0  24151-3 0  9993
2 62790  88.9754 100.1942 0014142 259.4034 100.5525 13.50993598 50996
QIANFAN-61              
1 62791U 25016G   26009.66092521  .00000155  00000+0  22156-3 0  9996
2 62791  88.9822 100.3727 0013094 258.4518 101.5163 13.50983906 51012
QIANFAN-62              
1 62792U 25016H   26009.66507286  .00000165  00000+0  23664-3 0  9992
2 62792  88.9768 100.2257 0014469 259.1983 100.7540 13.50986548 51004
QIANFAN-63              
1 62793U 25016J   26009.76379130  .00000160  00000+0  22962-3 0  9994
2 62793  88.9774 100.1689 0014447 264.8019  95.1484 13.50984745 51055
QIANFAN-64              
1 62794U 25016K   26009.65679653  .00000167  00000+0  23954-3 0  9995
2 62794  88.9761 100.1502 0012493 256.7336 103.2422 13.50988157 51039
QIANFAN-65              
1 62795U 25016L   26009.65272153  .00000173  00000+0  24900-3 0  9999
2 62795  88.9758 100.1757 0012315 258.6457 101.3311 13.50981904 51013
QIANFAN-66              
1 62796U 25016M   26009.68151471  .00000165  00000+0  23748-3 0  9992
2 62796  88.9777 100.1483 0013495 253.9104 106.0562 13.50986776 51065
QIANFAN-67              
1 62797U 25016N   26009.68567702  .00000174  00000+0  25042-3 0  9990
2 62797  88.9767 100.1707 0013345 261.6380  98.3259 13.50990996 51032
QIANFAN-68              
1 62798U 25016P   26009.67737814  .00000183  00000+0  26462-3 0  9990
2 62798  88.9771 100.2178 0013429 259.6975 100.2662 13.50982871 51013
QIANFAN-69              
1 62799U 25016Q   26009.61976595  .00000161  00000+0  23165-3 0  9999
2 62799  88.9750 100.0871 0014150 261.3035  98.6513 13.50983301 51045
QIANFAN-70              
1 62800U 25016R   26009.63631263  .00000172  00000+0  24781-3 0  9991
2 62800  88.9771 100.2298 0013933 250.4503 109.5143 13.50987061 51007
QIANFAN-71              
1 62801U 25016S   26009.63211794  .00000163  00000+0  23327-3 0  9990
2 62801  88.9765 100.2080 0014015 265.2247  94.7304 13.50986482 51001
QIANFAN-72              
1 62802U 25016T   26009.64856705  .00000177  00000+0  25503-3 0  9992
2 62802  88.9755 100.2170 0017197 273.6320  86.2864 13.50986342 50999
QIANFAN-73              
1 63159U 25046A   26009.60167035  .00000208  00000+0  30276-3 0  9996
2 63159  88.9788 317.1417 0016754  47.0602 313.1952 13.50986787 51172
QIANFAN-74              
1 63160U 25046B   26009.80730268  .00000212  00000+0  30970-3 0  9990
2 63160  88.9788 317.0093 0001942  69.6751 290.4609 13.50983903 51264
QIANFAN-75              
1 63161U 25046C   26009.64637411  .00000225  00000+0  32946-3 0  9998
2 63161  88.9789 317.2599 0017984  49.2481 311.0228 13.50986692 51115
QIANFAN-76              
1 63162U 25046D   26009.64302238  .00000220  00000+0  32207-3 0  9990
2 63162  88.9788 317.2408 0015540  50.2407 310.0110 13.50989187 51122
QIANFAN-77              
1 63163U 25046E   26009.63799458  .00000515  00000+0  36531-3 0  9995
2 63163  88.9789 315.0196 0015335   2.0900 358.0337 13.96117035 52342
QIANFAN-78              
1 63164U 25046F   26009.60986569  .00000228  00000+0  33475-3 0  9999
2 63164  88.9788 317.1079 0016946  52.0879 308.1802 13.50987913 51199
QIANFAN-79              
1 63165U 25046G   26009.63850361  .00000101  00000+0  13785-3 0  9995
2 63165  88.9791 317.2135 0016634  50.5438 309.7181 13.50984511 51149
QIANFAN-80              
1 63166U 25046H   26009.80318007  .00000220  00000+0  32216-3 0  9993
2 63166  88.9789 316.9027 0015631  54.0233 306.2365 13.50987778 51325
QIANFAN-81              
1 63167U 25046J   26009.63290515  .00000218  00000+0  31823-3 0  9998
2 63167  88.9789 316.9881 0016501  44.0339 316.2124 13.51013828 51250
QIANFAN-82              
1 63168U 25046K   26009.59345326  .00000223  00000+0  32637-3 0  9995
2 63168  88.9789 317.0362 0014753  51.5010 308.7461 13.50986811 51231
QIANFAN-83              
1 63169U 25046L   26009.61620787  .00000283  00000+0  35159-3 0  9994
2 63169  88.9789 316.7555 0015768  36.9652 323.2588 13.61987978 51394
QIANFAN-84              
1 63170U 25046M   26009.62104119  .00000222  00000+0  32476-3 0  9995
2 63170  88.9788 317.1659 0017660  47.7470 312.5176 13.50996643 51162
QIANFAN-85              
1 63171U 25046N   26009.61800151  .00000035  00000+0  35463-4 0  9996
2 63171  88.9785 317.0380 0015032  50.2260 310.0213 13.50985342 51234
QIANFAN-86              
1 63172U 25046P   26009.62633401  .00000234  00000+0  34367-3 0  9992
2 63172  88.9791 316.8999 0013029  54.4920 305.7445 13.50987525 51310
QIANFAN-87              
1 63173U 25046Q   26009.59770944  .00000227  00000+0  33213-3 0  9994
2 63173  88.9787 317.0134 0013615  50.3837 309.8514 13.50985215 51241
QIANFAN-88              
1 63174U 25046R   26009.61390879  .00000223  00000+0  32595-3 0  9991
2 63174  88.9789 316.9669 0014106  57.1481 303.1026 13.50991392 51272
QIANFAN-89              
1 63175U 25046S   26009.65085674  .00000235  00000+0  34557-3 0  9993
2 63175  88.9789 317.1522 0018345  47.8603 312.4103 13.50987721 51174
QIANFAN-90              
1 63176U 25046T   26009.60552870  .00000212  00000+0  30926-3 0  9997
2 63176  88.9789 317.1292 0015261  47.0806 313.1623 13.50987356 51180
QIANFAN-91              
1 66033U 25233A   26009.63816221  .00000083  00000+0  10940-3 0  9996
2 66033  88.9929  59.2656 0014399 321.0629  38.9484 13.50983077 11772
QIANFAN-92              
1 66034U 25233B   26009.64141971  .00000083  00000+0  11165-3 0  9991
2 66034  88.9912  59.2617 0014205 321.3106  38.7026 13.50257874 11770
QIANFAN-93              
1 66035U 25233C   26009.65129021  .00000060  00000+0  76068-4 0  9994
2 66035  88.9939  59.2701 0012742 319.6745  40.3460 13.50168001 11771
QIANFAN-94              
1 66036U 25233D   26009.64585442  .00000099  00000+0  10066-3 0  9994
2 66036  88.9936  59.2159 0013943 318.0985  41.9108 13.68550390 11804
QIANFAN-95              
1 66037U 25233E   26009.66038275  .00000160  00000+0  87586-4 0  9995
2 66037  88.9934  58.9248 0012531 320.8005  39.2269 14.07047672 11967
QIANFAN-96              
1 66038U 25233F   26009.67523219  .00000029  00000+0  26427-4 0  9995
2 66038  88.9931  59.2719 0006626 328.8607  31.2151 13.50986662 11775
QIANFAN-97              
1 66039U 25233G   26009.66021274 -.02108826  00000+0 -35357+1 0  9995
2 66039  88.9930  59.2531 0013225 328.6957  31.3405 13.50197480 11782
QIANFAN-98              
1 66040U 25233H   26009.64843785  .00000130  00000+0  10832-3 0  9993
2 66040  88.9926  59.0863 0013209 319.7669  40.2522 13.82585676 11870
QIANFAN-99              
1 66041U 25233J   26009.60496901 -.02145397  00000+0 -34126+1 0  9992
2 66041  88.9926  59.2638 0015180 341.1019  18.9569 13.53617379 11777
QIANFAN-100             
1 66042U 25233K   26009.67012313 -.02144541  00000+0 -34385+1 0  9998
2 66042  88.9939  59.1655 0014121 346.4942  13.5830 13.53114571 11832
QIANFAN-101             
1 66043U 25233L   26009.65103161  .00000213  00000+0  82274-4 0  9996
2 66043  88.9933  58.8113 0012833 309.1042  50.9010 14.26692475 12029
QIANFAN-102             
1 66044U 25233M   26009.63196954  .00000102  00000+0  10776-3 0  9991
2 66044  88.9932  59.2128 0013428 322.7481  37.2746 13.66803999 11806
QIANFAN-103             
1 66045U 25233N   26009.61358088 -.02112706  00000+0 -35639+1 0  9998
2 66045  88.9934  59.2648 0012609 323.3232  36.7054 13.49816860 11771
QIANFAN-104             
1 66046U 25233P   26009.66292535  .00000116  00000+0  11515-3 0  9995
2 66046  88.9936  59.2011 0012824 326.3011  33.7335 13.71549491 11817
QIANFAN-105             
1 66047U 25233Q   26009.66335891  .00000167  00000+0  12335-3 0  9996
2 66047  88.9938  59.0926 0013867 320.6109  39.4055 13.90527602 11875
QIANFAN-106             
1 66048U 25233R   26009.62224684 -.02137910  00000+0 -35036+1 0  9991
2 66048  88.9904  59.2447 0012756 331.8158  28.2302 13.51717575 11781
QIANFAN-107             
1 66049U 25233S   26009.63023352 -.02122482  00000+0 -35644+1 0  9995
2 66049  88.9934  59.2488 0013215 326.7623  33.2697 13.50121182 11786
QIANFAN-108             
1 66050U 25233T   26009.62683589  .00000025  00000+0  20090-4 0  9997
2 66050  88.9931  59.2473 0012693 322.1831  37.8426 13.49662167 11780
